[{"OBJECT_NAME":"STARLINK-35216","OBJECT_ID":"2025-198AA","EPOCH":"2026-03-09T22:16:53.911200","MEAN_MOTION":15.30208648,"ECCENTRICITY":8.442e-5,"INCLINATION":53.1571,"RA_OF_ASC_NODE":270.0946,"ARG_OF_PERICENTER":140.656,"MEAN_ANOMALY":219.4502,"EPHEMERIS_TYPE":0,"CLASSIFICATION_TYPE":"U","NORAD_CAT_ID":65516,"ELEMENT_SET_NO":999,"REV_AT_EPOCH":2865,"BSTAR":0.00066892878,"MEAN_MOTION_DOT":0.0001951,"MEAN_MOTION_DDOT":0},{"OBJECT_NAME":"TRANSPORTER-1 OBJECT M","OBJECT_ID":"2021-006M","EPOCH":"2026-03-09T22:05:37.843296","MEAN_MOTION":15.3227845,"ECCENTRICITY":0.00102759,"INCLINATION":97.2377,"RA_OF_ASC_NODE":116.7915,"ARG_OF_PERICENTER":187.5492,"MEAN_ANOMALY":172.5597,"EPHEMERIS_TYPE":0,"CLASSIFICATION_TYPE":"U","NORAD_CAT_ID":47424,"ELEMENT_SET_NO":999,"REV_AT_EPOCH":28439,"BSTAR":0.00023985652,"MEAN_MOTION_DOT":7.411e-5,"MEAN_MOTION_DDOT":0}]
